{
  "type": "FeatureCollection",
  "features": [
    {
      "type": "Feature",
      "properties": {
        "norad_id": 38146,
        "name": "FENGYUN 1C DEB",
        "group": "fengyun-1c-debris",
        "lat": -6.676061034625772,
        "lon": -124.0591224642815,
        "alt_km": 619.666174184149,
        "timestamp": "2025-12-03T19:33:07.265673+00:00",
        "meta_object_name": "FENGYUN 1C DEB",
        "meta_object_id": "1999-025EQT",
        "meta_epoch": "2025-12-03T10:45:50.404320",
        "meta_mean_motion": 14.59033464,
        "meta_eccentricity": 0.0203062,
        "meta_inclination": 99.485,
        "meta_ra_of_asc_node": 56.6441,
        "meta_arg_of_pericenter": 130.793,
        "meta_mean_anomaly": 291.7125,
        "meta_ephemeris_type": 0,
        "meta_classification_type": "U",
        "meta_norad_cat_id": 38146,
        "meta_element_set_no": 999,
        "meta_rev_at_epoch": 31744,
        "meta_bstar": 0.0015249,
        "meta_mean_motion_dot": 9.498e-05,
        "meta_mean_motion_ddot": 0,
        "tle_line1": "1 38146U 99025EQT 25337.44850005  .00009498  00000+0  15249-2 0  9995",
        "tle_line2": "2 38146  99.4850  56.6441 0203062 130.7930 291.7125 14.59033464317446"
      },
      "geometry": {
        "type": "Point",
        "coordinates": [
          -124.0591224642815,
          -6.676061034625772
        ]
      }
    },
    {
      "type": "Feature",
      "properties": {
        "norad_id": 38147,
        "name": "FENGYUN 1C DEB",
        "group": "fengyun-1c-debris",
        "lat": 57.43470709042451,
        "lon": -21.359299930033657,
        "alt_km": 809.9691415487832,
        "timestamp": "2025-12-03T19:33:07.265683+00:00",
        "meta_object_name": "FENGYUN 1C DEB",
        "meta_object_id": "1999-025EQU",
        "meta_epoch": "2025-11-29T07:18:26.920800",
        "meta_mean_motion": 14.23385127,
        "meta_eccentricity": 0.0050737,
        "meta_inclination": 98.5592,
        "meta_ra_of_asc_node": 347.8933,
        "meta_arg_of_pericenter": 338.7731,
        "meta_mean_anomaly": 21.1342,
        "meta_ephemeris_type": 0,
        "meta_classification_type": "U",
        "meta_norad_cat_id": 38147,
        "meta_element_set_no": 999,
        "meta_rev_at_epoch": 60196,
        "meta_bstar": 0.00059773367,
        "meta_mean_motion_dot": 1.331e-05,
        "meta_mean_motion_ddot": 0,
        "tle_line1": "1 38147U 99025EQU 25333.30447825  .00001331  00000+0  59773-3 0  9998",
        "tle_line2": "2 38147  98.5592 347.8933 0050737 338.7731  21.1342 14.23385127601965"
      },
      "geometry": {
        "type": "Point",
        "coordinates": [
          -21.359299930033657,
          57.43470709042451
        ]
      }
    },
    {
      "type": "Feature",
      "properties": {
        "norad_id": 38149,
        "name": "FENGYUN 1C DEB",
        "group": "fengyun-1c-debris",
        "lat": 59.54976408190251,
        "lon": 164.94142775366785,
        "alt_km": 778.5872046011855,
        "timestamp": "2025-12-03T19:33:07.265693+00:00",
        "meta_object_name": "FENGYUN 1C DEB",
        "meta_object_id": "1999-025EQW",
        "meta_epoch": "2025-12-02T05:56:21.153984",
        "meta_mean_motion": 14.25900864,
        "meta_eccentricity": 0.0077386,
        "meta_inclination": 98.3564,
        "meta_ra_of_asc_node": 328.9678,
        "meta_arg_of_pericenter": 192.0658,
        "meta_mean_anomaly": 167.8671,
        "meta_ephemeris_type": 0,
        "meta_classification_type": "U",
        "meta_norad_cat_id": 38149,
        "meta_element_set_no": 999,
        "meta_rev_at_epoch": 70338,
        "meta_bstar": 0.0002822,
        "meta_mean_motion_dot": 6.52e-06,
        "meta_mean_motion_ddot": 0,
        "tle_line1": "1 38149U 99025EQW 25336.24746706  .00000652  00000+0  28220-3 0  9994",
        "tle_line2": "2 38149  98.3564 328.9678 0077386 192.0658 167.8671 14.25900864703383"
      },
      "geometry": {
        "type": "Point",
        "coordinates": [
          164.94142775366785,
          59.54976408190251
        ]
      }
    },
    {
      "type": "Feature",
      "properties": {
        "norad_id": 38155,
        "name": "FENGYUN 1C DEB",
        "group": "fengyun-1c-debris",
        "lat": 81.00645173349704,
        "lon": 172.66943459607623,
        "alt_km": 774.5182012596206,
        "timestamp": "2025-12-03T19:33:07.265703+00:00",
        "meta_object_name": "FENGYUN 1C DEB",
        "meta_object_id": "1999-025ERC",
        "meta_epoch": "2025-11-23T23:11:37.353120",
        "meta_mean_motion": 14.24801471,
        "meta_eccentricity": 0.00959279,
        "meta_inclination": 98.4446,
        "meta_ra_of_asc_node": 233.0188,
        "meta_arg_of_pericenter": 183.3275,
        "meta_mean_anomaly": 176.7278,
        "meta_ephemeris_type": 0,
        "meta_classification_type": "U",
        "meta_norad_cat_id": 38155,
        "meta_element_set_no": 999,
        "meta_rev_at_epoch": 63508,
        "meta_bstar": 0.0025040606,
        "meta_mean_motion_dot": 6.088e-05,
        "meta_mean_motion_ddot": 0,
        "tle_line1": "1 38155U 99025ERC 25327.96640455  .00006088  00000+0  25041-2 0  9990",
        "tle_line2": "2 38155  98.4446 233.0188 0095927 183.3275 176.7278 14.24801471635087"
      },
      "geometry": {
        "type": "Point",
        "coordinates": [
          172.66943459607623,
          81.00645173349704
        ]
      }
    },
    {
      "type": "Feature",
      "properties": {
        "norad_id": 38157,
        "name": "FENGYUN 1C DEB",
        "group": "fengyun-1c-debris",
        "lat": -64.12182283171758,
        "lon": 43.380114979696195,
        "alt_km": 877.5477595077136,
        "timestamp": "2025-12-03T19:33:07.265713+00:00",
        "meta_object_name": "FENGYUN 1C DEB",
        "meta_object_id": "1999-025ERE",
        "meta_epoch": "2025-12-03T04:54:36.988128",
        "meta_mean_motion": 14.21681086,
        "meta_eccentricity": 0.0273888,
        "meta_inclination": 99.656,
        "meta_ra_of_asc_node": 243.2583,
        "meta_arg_of_pericenter": 141.1145,
        "meta_mean_anomaly": 221.0087,
        "meta_ephemeris_type": 0,
        "meta_classification_type": "U",
        "meta_norad_cat_id": 38157,
        "meta_element_set_no": 999,
        "meta_rev_at_epoch": 76112,
        "meta_bstar": 0.00072883,
        "meta_mean_motion_dot": 2.288e-05,
        "meta_mean_motion_ddot": 0,
        "tle_line1": "1 38157U 99025ERE 25337.20459477  .00002288  00000+0  72883-3 0  9997",
        "tle_line2": "2 38157  99.6560 243.2583 0273888 141.1145 221.0087 14.21681086761125"
      },
      "geometry": {
        "type": "Point",
        "coordinates": [
          43.380114979696195,
          -64.12182283171758
        ]
      }
    },
    {
      "type": "Feature",
      "properties": {
        "norad_id": 38159,
        "name": "FENGYUN 1C DEB",
        "group": "fengyun-1c-debris",
        "lat": 3.0628203693814733,
        "lon": 49.760103975372964,
        "alt_km": 925.5381922898496,
        "timestamp": "2025-12-03T19:33:07.265723+00:00",
        "meta_object_name": "FENGYUN 1C DEB",
        "meta_object_id": "1999-025ERG",
        "meta_epoch": "2025-11-26T10:28:43.302720",
        "meta_mean_motion": 14.03426914,
        "meta_eccentricity": 0.00573234,
        "meta_inclination": 99.3154,
        "meta_ra_of_asc_node": 221.7049,
        "meta_arg_of_pericenter": 25.5121,
        "meta_mean_anomaly": 334.8854,
        "meta_ephemeris_type": 0,
        "meta_classification_type": "U",
        "meta_norad_cat_id": 38159,
        "meta_element_set_no": 999,
        "meta_rev_at_epoch": 82883,
        "meta_bstar": 0.00052980182,
        "meta_mean_motion_dot": 7.94e-06,
        "meta_mean_motion_ddot": 0,
        "tle_line1": "1 38159U 99025ERG 25330.43661230  .00000794  00000+0  52980-3 0  9995",
        "tle_line2": "2 38159  99.3154 221.7049 0057323  25.5121 334.8854 14.03426914828838"
      },
      "geometry": {
        "type": "Point",
        "coordinates": [
          49.760103975372964,
          3.0628203693814733
        ]
      }
    },
    {
      "type": "Feature",
      "properties": {
        "norad_id": 38163,
        "name": "FENGYUN 1C DEB",
        "group": "fengyun-1c-debris",
        "lat": 19.64399602846818,
        "lon": 10.986850537683814,
        "alt_km": 894.4531224488373,
        "timestamp": "2025-12-03T19:33:07.265733+00:00",
        "meta_object_name": "FENGYUN 1C DEB",
        "meta_object_id": "1999-025ERL",
        "meta_epoch": "2025-12-03T07:30:03.321216",
        "meta_mean_motion": 14.05878052,
        "meta_eccentricity": 0.0075533,
        "meta_inclination": 99.1289,
        "meta_ra_of_asc_node": 13.7713,
        "meta_arg_of_pericenter": 268.5534,
        "meta_mean_anomaly": 90.6979,
        "meta_ephemeris_type": 0,
        "meta_classification_type": "U",
        "meta_norad_cat_id": 38163,
        "meta_element_set_no": 999,
        "meta_rev_at_epoch": 24409,
        "meta_bstar": 0.0011812,
        "meta_mean_motion_dot": 1.936e-05,
        "meta_mean_motion_ddot": 0,
        "tle_line1": "1 38163U 99025ERL 25337.31253844  .00001936  00000+0  11812-2 0  9999",
        "tle_line2": "2 38163  99.1289  13.7713 0075533 268.5534  90.6979 14.05878052244098"
      },
      "geometry": {
        "type": "Point",
        "coordinates": [
          10.986850537683814,
          19.64399602846818
        ]
      }
    }
  ]
}